{"type": "FeatureCollection", "features": [ {"type": "Feature", "properties": {"norad_id": 67069, "name": "XIWANG-5 02", "group": "last-30-days", "lat": 4.709362300859693, "lon": 67.71667170627973, "alt_km": 510.49175801103866, "timestamp": "2025-12-19T14:48:34.967882+00:00", "meta": {"OBJECT_NAME": "XIWANG-5 02", "OBJECT_ID": "2025-296A", "EPOCH": "2025-12-19T06:52:37.183872", "MEAN_MOTION": 15.16798782, "ECCENTRICITY": 0.0014493, "INCLINATION": 41.3526, "RA_OF_ASC_NODE": 64.228, "ARG_OF_PERICENTER": 71.5853, "MEAN_ANOMALY": 288.6543, "EPHEMERIS_TYPE": 0, "CLASSIFICATION_TYPE": "U", "NORAD_CAT_ID": 67069, "ELEMENT_SET_NO": 999, "REV_AT_EPOCH": 95, "BSTAR": 0.00045101918, "MEAN_MOTION_DOT": 8.862e-05, "MEAN_MOTION_DDOT": 0}, "tle": {"line1": "1 67069U 25296A   25353.28654148  .00008862  00000+0  45102-3 0  9996", "line2": "2 67069  41.3526  64.2280 0014493  71.5853 288.6543 15.16798782   957"}}, "geometry": {"type": "Point", "coordinates": [67.71667170627973, 4.709362300859693]}}, {"type": "Feature", "properties": {"norad_id": 67070, "name": "DEAR-5", "group": "last-30-days", "lat": 7.450883716863592, "lon": 70.8842376847903, "alt_km": 508.84315277123096, "timestamp": "2025-12-19T14:48:34.967892+00:00", "meta": {"OBJECT_NAME": "DEAR-5", "OBJECT_ID": "2025-296B", "EPOCH": "2025-12-19T02:07:06.725856", "MEAN_MOTION": 15.16883786, "ECCENTRICITY": 0.0016126, "INCLINATION": 41.3555, "RA_OF_ASC_NODE": 65.351, "ARG_OF_PERICENTER": 71.2367, "MEAN_ANOMALY": 289.0203, "EPHEMERIS_TYPE": 0, "CLASSIFICATION_TYPE": "U", "NORAD_CAT_ID": 67070, "ELEMENT_SET_NO": 999, "REV_AT_EPOCH": 91, "BSTAR": 0.00027263475, "MEAN_MOTION_DOT": 5.288e-05, "MEAN_MOTION_DDOT": 0}, "tle": {"line1": "1 67070U 25296B   25353.08827229  .00005288  00000+0  27263-3 0  9995", "line2": "2 67070  41.3555  65.3510 0016126  71.2367 289.0203 15.16883786   914"}}, "geometry": {"type": "Point", "coordinates": [70.8842376847903, 7.450883716863592]}}, {"type": "Feature", "properties": {"norad_id": 67071, "name": "KZ-11 R/B", "group": "last-30-days", "lat": -36.3663124488297, "lon": -58.307379226736515, "alt_km": 760.4138442402491, "timestamp": "2025-12-19T14:48:34.967903+00:00", "meta": {"OBJECT_NAME": "KZ-11 R/B", "OBJECT_ID": "2025-296C", "EPOCH": "2025-12-18T15:12:04.764672", "MEAN_MOTION": 14.86885548, "ECCENTRICITY": 0.06788234, "INCLINATION": 41.3315, "RA_OF_ASC_NODE": 70.2352, "ARG_OF_PERICENTER": 355.0968, "MEAN_ANOMALY": 4.3428, "EPHEMERIS_TYPE": 0, "CLASSIFICATION_TYPE": "U", "NORAD_CAT_ID": 67071, "ELEMENT_SET_NO": 999, "REV_AT_EPOCH": 82, "BSTAR": 0.00050423781, "MEAN_MOTION_DOT": 0.05455497, "MEAN_MOTION_DDOT": 6.017039e-06}, "tle": {"line1": "1 67071U 25296C   25352.63338848  .05455497  60170-5  50424-3 0  9991", "line2": "2 67071  41.3315  70.2352 0678823 355.0968   4.3428 14.86885548   827"}}, "geometry": {"type": "Point", "coordinates": [-58.307379226736515, -36.3663124488297]}}, {"type": "Feature", "properties": {"norad_id": 67072, "name": "ELECTRON R/B", "group": "last-30-days", "lat": 36.82397291118294, "lon": 135.94099783775627, "alt_km": 424.7804556641786, "timestamp": "2025-12-19T14:48:34.967916+00:00", "meta": {"OBJECT_NAME": "ELECTRON R/B", "OBJECT_ID": "2025-297A", "EPOCH": "2025-12-19T07:05:39.225696", "MEAN_MOTION": 15.89000154, "ECCENTRICITY": 0.01977828, "INCLINATION": 97.472, "RA_OF_ASC_NODE": 141.2271, "ARG_OF_PERICENTER": 208.8024, "MEAN_ANOMALY": 150.2217, "EPHEMERIS_TYPE": 0, "CLASSIFICATION_TYPE": "U", "NORAD_CAT_ID": 67072, "ELEMENT_SET_NO": 999, "REV_AT_EPOCH": 82, "BSTAR": 0.0013443304, "MEAN_MOTION_DOT": 0.02418712, "MEAN_MOTION_DDOT": 2.217586e-06}, "tle": {"line1": "1 67072U 25297A   25353.29559289  .02418712  22176-5  13443-2 0  9999", "line2": "2 67072  97.4720 141.2271 0197782 208.8024 150.2217 15.89000154   820"}}, "geometry": {"type": "Point", "coordinates": [135.94099783775627, 36.82397291118294]}}, {"type": "Feature", "properties": {"norad_id": 67073, "name": "RAISE-4", "group": "last-30-days", "lat": 70.36603605295778, "lon": 119.35453138230345, "alt_km": 543.7163358074977, "timestamp": "2025-12-19T14:48:34.967932+00:00", "meta": {"OBJECT_NAME": "RAISE-4", "OBJECT_ID": "2025-297B", "EPOCH": "2025-12-19T06:31:31.025568", "MEAN_MOTION": 15.07177511, "ECCENTRICITY": 0.00114177, "INCLINATION": 97.4853, "RA_OF_ASC_NODE": 140.6452, "ARG_OF_PERICENTER": 296.9674, "MEAN_ANOMALY": 63.0387, "EPHEMERIS_TYPE": 0, "CLASSIFICATION_TYPE": "U", "NORAD_CAT_ID": 67073, "ELEMENT_SET_NO": 999, "REV_AT_EPOCH": 77, "BSTAR": 0.00022353741, "MEAN_MOTION_DOT": 3.306e-05, "MEAN_MOTION_DDOT": 0}, "tle": {"line1": "1 67073U 25297B   25353.27188687  .00003306  00000+0  22354-3 0  9993", "line2": "2 67073  97.4853 140.6452 0011417 296.9674  63.0387 15.07177511   776"}}, "geometry": {"type": "Point", "coordinates": [119.35453138230345, 70.36603605295778]}}, {"type": "Feature", "properties": {"norad_id": 67074, "name": "ELECTRON KICK STAGE R/B", "group": "last-30-days", "lat": -70.5624117541097, "lon": 163.2590586590081, "alt_km": 305.4876411727628, "timestamp": "2025-12-19T14:48:34.967943+00:00", "meta": {"OBJECT_NAME": "ELECTRON KICK STAGE R/B", "OBJECT_ID": "2025-297C", "EPOCH": "2025-12-18T23:41:00.563712", "MEAN_MOTION": 15.55985409, "ECCENTRICITY": 0.02022582, "INCLINATION": 97.4818, "RA_OF_ASC_NODE": 140.7335, "ARG_OF_PERICENTER": 246.792, "MEAN_ANOMALY": 111.1921, "EPHEMERIS_TYPE": 0, "CLASSIFICATION_TYPE": "U", "NORAD_CAT_ID": 67074, "ELEMENT_SET_NO": 999, "REV_AT_EPOCH": 75, "BSTAR": 0.0014322456, "MEAN_MOTION_DOT": 0.00259375, "MEAN_MOTION_DDOT": 1.9664913e-05}, "tle": {"line1": "1 67074U 25297C   25352.98681208  .00259375  19665-4  14322-2 0  9994", "line2": "2 67074  97.4818 140.7335 0202258 246.7920 111.1921 15.55985409   754"}}, "geometry": {"type": "Point", "coordinates": [163.2590586590081, -70.5624117541097]}}, {"type": "Feature", "properties": {"norad_id": 67131, "name": "ZIYUAN 3-04 (ZY 3-04)", "group": "last-30-days", "lat": 49.77563500125965, "lon": -103.3285751469119, "alt_km": 491.9797123095059, "timestamp": "2025-12-19T14:48:34.967953+00:00", "meta": {"OBJECT_NAME": "ZIYUAN 3-04 (ZY 3-04)", "OBJECT_ID": "2025-300A", "EPOCH": "2025-12-16T05:54:33.890112", "MEAN_MOTION": 15.24627585, "ECCENTRICITY": 0.0011082, "INCLINATION": 97.5012, "RA_OF_ASC_NODE": 64.3338, "ARG_OF_PERICENTER": 268.6179, "MEAN_ANOMALY": 91.3789, "EPHEMERIS_TYPE": 0, "CLASSIFICATION_TYPE": "U", "NORAD_CAT_ID": 67131, "ELEMENT_SET_NO": 999, "REV_AT_EPOCH": 2, "BSTAR": 8.3268042e-05, "MEAN_MOTION_DOT": 1.984e-05, "MEAN_MOTION_DDOT": 0}, "tle": {"line1": "1 67131U 25300A   25350.24622558  .00001984  00000+0  83268-4 0  9999", "line2": "2 67131  97.5012  64.3338 0011082 268.6179  91.3789 15.24627585    26"}}, "geometry": {"type": "Point", "coordinates": [-103.3285751469119, 49.77563500125965]}}, {"type": "Feature", "properties": {"norad_id": 67132, "name": "CZ-4B R/B", "group": "last-30-days", "lat": -72.97028370615477, "lon": -137.70939544281762, "alt_km": 424.40655544735, "timestamp": "2025-12-19T14:48:34.967963+00:00", "meta": {"OBJECT_NAME": "CZ-4B R/B", "OBJECT_ID": "2025-300B", "EPOCH": "2025-12-18T16:13:04.609056", "MEAN_MOTION": 15.63831828, "ECCENTRICITY": 0.01741973, "INCLINATION": 97.5563, "RA_OF_ASC_NODE": 66.966, "ARG_OF_PERICENTER": 9.3582, "MEAN_ANOMALY": 351.0851, "EPHEMERIS_TYPE": 0, "CLASSIFICATION_TYPE": "U", "NORAD_CAT_ID": 67132, "ELEMENT_SET_NO": 999, "REV_AT_EPOCH": 40, "BSTAR": 0.00019566238, "MEAN_MOTION_DOT": 0.00040543, "MEAN_MOTION_DDOT": 2.652968e-06}, "tle": {"line1": "1 67132U 25300B   25352.67574779  .00040543  26530-5  19566-3 0  9995", "line2": "2 67132  97.5563  66.9660 0174197   9.3582 351.0851 15.63831828   407"}}, "geometry": {"type": "Point", "coordinates": [-137.70939544281762, -72.97028370615477]}}, {"type": "Feature", "properties": {"norad_id": 67160, "name": "GALILEO A", "group": "last-30-days", "lat": -12.581167090339775, "lon": -63.56148452876565, "alt_km": 22928.3378914283, "timestamp": "2025-12-19T14:48:34.967974+00:00", "meta": {"OBJECT_NAME": "GALILEO A", "OBJECT_ID": "2025-302A", "EPOCH": "2025-12-18T03:30:19.276416", "MEAN_MOTION": 1.72903353, "ECCENTRICITY": 0.00081342, "INCLINATION": 54.2386, "RA_OF_ASC_NODE": 107.2478, "ARG_OF_PERICENTER": 237.4124, "MEAN_ANOMALY": 122.4681, "EPHEMERIS_TYPE": 0, "CLASSIFICATION_TYPE": "U", "NORAD_CAT_ID": 67160, "ELEMENT_SET_NO": 999, "REV_AT_EPOCH": 2, "BSTAR": 0, "MEAN_MOTION_DOT": -7e-08, "MEAN_MOTION_DDOT": 0}, "tle": {"line1": "1 67160U 25302A   25352.14605644 -.00000007  00000+0  00000+0 0  9995", "line2": "2 67160  54.2386 107.2478 0008134 237.4124 122.4681  1.72903353    27"}}, "geometry": {"type": "Point", "coordinates": [-63.56148452876565, -12.581167090339775]}}, {"type": "Feature", "properties": {"norad_id": 67161, "name": "GALILEO B", "group": "last-30-days", "lat": -13.04134933820182, "lon": -63.228971837117136, "alt_km": 22930.477017305537, "timestamp": "2025-12-19T14:48:34.967987+00:00", "meta": {"OBJECT_NAME": "GALILEO B", "OBJECT_ID": "2025-302B", "EPOCH": "2025-12-18T17:22:24.246336", "MEAN_MOTION": 1.72971576, "ECCENTRICITY": 0.00048165, "INCLINATION": 54.2288, "RA_OF_ASC_NODE": 107.2066, "ARG_OF_PERICENTER": 251.7259, "MEAN_ANOMALY": 108.1814, "EPHEMERIS_TYPE": 0, "CLASSIFICATION_TYPE": "U", "NORAD_CAT_ID": 67161, "ELEMENT_SET_NO": 999, "REV_AT_EPOCH": 4, "BSTAR": 0, "MEAN_MOTION_DOT": -6e-08, "MEAN_MOTION_DDOT": 0}, "tle": {"line1": "1 67161U 25302B   25352.72389174 -.00000006  00000+0  00000+0 0  9996", "line2": "2 67161  54.2288 107.2066 0004816 251.7259 108.1814  1.72971576    46"}}, "geometry": {"type": "Point", "coordinates": [-63.228971837117136, -13.04134933820182]}}]}